{
  "type": "FeatureCollection",
  "features": [
    {
      "type": "Feature",
      "properties": {
        "norad_id": 38857,
        "name": "GSAT0103 (GALILEO-FM3)",
        "group": "gnss",
        "lat": 0.800317374049497,
        "lon": -74.1826092459092,
        "alt_km": 23222.56180433229,
        "timestamp": "2025-12-23T18:59:32.213559+00:00",
        "meta_object_name": "GSAT0103 (GALILEO-FM3)",
        "meta_object_id": "2012-055A",
        "meta_epoch": "2025-12-22T21:54:43.252704",
        "meta_mean_motion": 1.70473351,
        "meta_eccentricity": 0.0002995,
        "meta_inclination": 55.698,
        "meta_ra_of_asc_node": 106.3873,
        "meta_arg_of_pericenter": 269.858,
        "meta_mean_anomaly": 90.0891,
        "meta_ephemeris_type": 0,
        "meta_classification_type": "U",
        "meta_norad_cat_id": 38857,
        "meta_element_set_no": 999,
        "meta_rev_at_epoch": 8200,
        "meta_bstar": 0,
        "meta_mean_motion_dot": 1e-07,
        "meta_mean_motion_ddot": 0,
        "tle_line1": "1 38857U 12055A   25356.91300061  .00000010  00000+0  00000+0 0  9994",
        "tle_line2": "2 38857  55.6980 106.3873 0002995 269.8580  90.0891  1.70473351 82005"
      },
      "geometry": {
        "type": "Point",
        "coordinates": [
          -74.1826092459092,
          0.800317374049497
        ]
      }
    },
    {
      "type": "Feature",
      "properties": {
        "norad_id": 38953,
        "name": "BEIDOU-2 G6 (C02)",
        "group": "gnss",
        "lat": 1.767832894026118,
        "lon": 101.40377629428029,
        "alt_km": 35789.09344797816,
        "timestamp": "2025-12-23T18:59:32.213570+00:00",
        "meta_object_name": "BEIDOU-2 G6 (C02)",
        "meta_object_id": "2012-059A",
        "meta_epoch": "2025-12-23T00:55:51.734208",
        "meta_mean_motion": 1.00268399,
        "meta_eccentricity": 0.00083158,
        "meta_inclination": 3.9737,
        "meta_ra_of_asc_node": 75.4058,
        "meta_arg_of_pericenter": 292.2728,
        "meta_mean_anomaly": 182.0387,
        "meta_ephemeris_type": 0,
        "meta_classification_type": "U",
        "meta_norad_cat_id": 38953,
        "meta_element_set_no": 999,
        "meta_rev_at_epoch": 4814,
        "meta_bstar": 0,
        "meta_mean_motion_dot": -1.55e-06,
        "meta_mean_motion_ddot": 0,
        "tle_line1": "1 38953U 12059A   25357.03879322 -.00000155  00000+0  00000+0 0  9991",
        "tle_line2": "2 38953   3.9737  75.4058 0008315 292.2728 182.0387  1.00268399 48141"
      },
      "geometry": {
        "type": "Point",
        "coordinates": [
          101.40377629428029,
          1.767832894026118
        ]
      }
    },
    {
      "type": "Feature",
      "properties": {
        "norad_id": 38977,
        "name": "LUCH 5B (SDCM/PRN 125)",
        "group": "gnss",
        "lat": -7.7791106099870895,
        "lon": 1.6406180684733724,
        "alt_km": 35798.115964239645,
        "timestamp": "2025-12-23T18:59:32.213580+00:00",
        "meta_object_name": "LUCH 5B (SDCM/PRN 125)",
        "meta_object_id": "2012-061A",
        "meta_epoch": "2025-12-22T23:21:25.865856",
        "meta_mean_motion": 1.00272063,
        "meta_eccentricity": 0.00065916,
        "meta_inclination": 10.1018,
        "meta_ra_of_asc_node": 51.6073,
        "meta_arg_of_pericenter": 195.9358,
        "meta_mean_anomaly": 178.2582,
        "meta_ephemeris_type": 0,
        "meta_classification_type": "U",
        "meta_norad_cat_id": 38977,
        "meta_element_set_no": 999,
        "meta_rev_at_epoch": 4784,
        "meta_bstar": 0,
        "meta_mean_motion_dot": -1.21e-06,
        "meta_mean_motion_ddot": 0,
        "tle_line1": "1 38977U 12061A   25356.97321604 -.00000121  00000+0  00000+0 0  9990",
        "tle_line2": "2 38977  10.1018  51.6073 0006591 195.9358 178.2582  1.00272063 47847"
      },
      "geometry": {
        "type": "Point",
        "coordinates": [
          1.6406180684733724,
          -7.7791106099870895
        ]
      }
    },
    {
      "type": "Feature",
      "properties": {
        "norad_id": 39155,
        "name": "COSMOS 2485 (747)",
        "group": "gnss",
        "lat": -55.62904119290631,
        "lon": 37.34701865140945,
        "alt_km": 19108.396971582046,
        "timestamp": "2025-12-23T18:59:32.213590+00:00",
        "meta_object_name": "COSMOS 2485 (747)",
        "meta_object_id": "2013-019A",
        "meta_epoch": "2025-12-22T11:14:56.157792",
        "meta_mean_motion": 2.13103251,
        "meta_eccentricity": 0.00249447,
        "meta_inclination": 65.3184,
        "meta_ra_of_asc_node": 79.5401,
        "meta_arg_of_pericenter": 230.2875,
        "meta_mean_anomaly": 129.5355,
        "meta_ephemeris_type": 0,
        "meta_classification_type": "U",
        "meta_norad_cat_id": 39155,
        "meta_element_set_no": 999,
        "meta_rev_at_epoch": 9851,
        "meta_bstar": 0,
        "meta_mean_motion_dot": -2e-08,
        "meta_mean_motion_ddot": 0,
        "tle_line1": "1 39155U 13019A   25356.46870553 -.00000002  00000+0  00000+0 0  9997",
        "tle_line2": "2 39155  65.3184  79.5401 0024944 230.2875 129.5355  2.13103251 98519"
      },
      "geometry": {
        "type": "Point",
        "coordinates": [
          37.34701865140945,
          -55.62904119290631
        ]
      }
    },
    {
      "type": "Feature",
      "properties": {
        "norad_id": 39166,
        "name": "GPS BIIF-4  (PRN 27)",
        "group": "gnss",
        "lat": 53.35638679939652,
        "lon": -11.49287726851543,
        "alt_km": 19859.17643502504,
        "timestamp": "2025-12-23T18:59:32.213600+00:00",
        "meta_object_name": "GPS BIIF-4  (PRN 27)",
        "meta_object_id": "2013-023A",
        "meta_epoch": "2025-12-22T04:30:56.781216",
        "meta_mean_motion": 2.00564649,
        "meta_eccentricity": 0.01384833,
        "meta_inclination": 54.6439,
        "meta_ra_of_asc_node": 276.1841,
        "meta_arg_of_pericenter": 48.7288,
        "meta_mean_anomaly": 312.4984,
        "meta_ephemeris_type": 0,
        "meta_classification_type": "U",
        "meta_norad_cat_id": 39166,
        "meta_element_set_no": 999,
        "meta_rev_at_epoch": 9233,
        "meta_bstar": 0,
        "meta_mean_motion_dot": -1.5e-07,
        "meta_mean_motion_ddot": 0,
        "tle_line1": "1 39166U 13023A   25356.18815719 -.00000015  00000+0  00000+0 0  9990",
        "tle_line2": "2 39166  54.6439 276.1841 0138483  48.7288 312.4984  2.00564649 92335"
      },
      "geometry": {
        "type": "Point",
        "coordinates": [
          -11.49287726851543,
          53.35638679939652
        ]
      }
    },
    {
      "type": "Feature",
      "properties": {
        "norad_id": 39199,
        "name": "IRNSS-1A",
        "group": "gnss",
        "lat": 3.452552100303255,
        "lon": 71.29659401691845,
        "alt_km": 35876.4244989519,
        "timestamp": "2025-12-23T18:59:32.213612+00:00",
        "meta_object_name": "IRNSS-1A",
        "meta_object_id": "2013-034A",
        "meta_epoch": "2025-12-22T18:33:45.913248",
        "meta_mean_motion": 1.00272973,
        "meta_eccentricity": 0.00245932,
        "meta_inclination": 35.3347,
        "meta_ra_of_asc_node": 66.4064,
        "meta_arg_of_pericenter": 215.1695,
        "meta_mean_anomaly": 143.2435,
        "meta_ephemeris_type": 0,
        "meta_classification_type": "U",
        "meta_norad_cat_id": 39199,
        "meta_element_set_no": 999,
        "meta_rev_at_epoch": 4559,
        "meta_bstar": 0,
        "meta_mean_motion_dot": 7.6e-07,
        "meta_mean_motion_ddot": 0,
        "tle_line1": "1 39199U 13034A   25356.77344807  .00000076  00000+0  00000+0 0  9994",
        "tle_line2": "2 39199  35.3347  66.4064 0024593 215.1695 143.2435  1.00272973 45592"
      },
      "geometry": {
        "type": "Point",
        "coordinates": [
          71.29659401691845,
          3.452552100303255
        ]
      }
    },
    {
      "type": "Feature",
      "properties": {
        "norad_id": 39533,
        "name": "GPS BIIF-5  (PRN 30)",
        "group": "gnss",
        "lat": 52.580857716464116,
        "lon": -129.04458643335306,
        "alt_km": 20350.935168190656,
        "timestamp": "2025-12-23T18:59:32.213634+00:00",
        "meta_object_name": "GPS BIIF-5  (PRN 30)",
        "meta_object_id": "2014-008A",
        "meta_epoch": "2025-12-20T16:28:24.690432",
        "meta_mean_motion": 2.00548724,
        "meta_eccentricity": 0.00795742,
        "meta_inclination": 53.6246,
        "meta_ra_of_asc_node": 156.6308,
        "meta_arg_of_pericenter": 226.1122,
        "meta_mean_anomaly": 133.2164,
        "meta_ephemeris_type": 0,
        "meta_classification_type": "U",
        "meta_norad_cat_id": 39533,
        "meta_element_set_no": 999,
        "meta_rev_at_epoch": 8610,
        "meta_bstar": 0,
        "meta_mean_motion_dot": 6.5e-07,
        "meta_mean_motion_ddot": 0,
        "tle_line1": "1 39533U 14008A   25354.68639688  .00000065  00000+0  00000+0 0  9998",
        "tle_line2": "2 39533  53.6246 156.6308 0079574 226.1122 133.2164  2.00548724 86105"
      },
      "geometry": {
        "type": "Point",
        "coordinates": [
          -129.04458643335306,
          52.580857716464116
        ]
      }
    }
  ]
}